SAUDISAT 1C             
1 27607U 02058C   22228.68348935  .00000420  00000+0  77980-4 0  9999
2 27607  64.5547 117.5792 0080768 282.8783  76.3307 14.76202566 57269
SAUDISAT 2              
1 28371U 04025F   22229.44065396  .00000150  00000+0  46157-4 0  9998
2 28371  98.3831 186.3195 0024373 278.1002  81.7426 14.54584715962152
SAUDISAT 3              
1 31118U 07012B   22229.39088812  .00000198  00000+0  41688-4 0  9998
2 31118  97.9718 174.9737 0015269   7.2904 352.8521 14.69352517822102
PISAT                   
1 41784U 16059B   22229.10831874  .00000418  00000+0  88086-4 0  9990
2 41784  97.9117 270.0862 0031155 340.2683  19.7312 14.63970183314560
FLYING LAPTOP           
1 42831U 17042G   22228.69442440  .00001014  00000+0  10531-3 0  9999
2 42831  97.4178  79.6333 0014347 159.7172 200.4611 14.91878163277073
SALSAT                  
1 46495U 20068K   22228.81456008  .00001315  00000+0  97552-4 0  9993
2 46495  97.7310 170.1494 0018201  74.6001 285.7234 15.04716941103264
